[{"OBJECT_NAME":"KANOPUS-V-IK","OBJECT_ID":"2017-042A","EPOCH":"2026-03-09T19:17:12.916608","MEAN_MOTION":15.22854595,"ECCENTRICITY":0.00016151,"INCLINATION":97.364,"RA_OF_ASC_NODE":336.3354,"ARG_OF_PERICENTER":87.4516,"MEAN_ANOMALY":272.6906,"EPHEMERIS_TYPE":0,"CLASSIFICATION_TYPE":"U","NORAD_CAT_ID":42825,"ELEMENT_SET_NO":999,"REV_AT_EPOCH":48024,"BSTAR":0.00016848135,"MEAN_MOTION_DOT":3.875e-5,"MEAN_MOTION_DDOT":0},{"OBJECT_NAME":"JAY-C","OBJECT_ID":"2025-009BM","EPOCH":"2026-03-09T21:49:25.741344","MEAN_MOTION":15.21616071,"ECCENTRICITY":0.00037153,"INCLINATION":97.4007,"RA_OF_ASC_NODE":149.4579,"ARG_OF_PERICENTER":347.8678,"MEAN_ANOMALY":12.2468,"EPHEMERIS_TYPE":0,"CLASSIFICATION_TYPE":"U","NORAD_CAT_ID":62668,"ELEMENT_SET_NO":999,"REV_AT_EPOCH":12127,"BSTAR":0.00023436914,"MEAN_MOTION_DOT":5.223e-5,"MEAN_MOTION_DDOT":0}]
